{
  "norad_id": 66357,
  "name": "STARLINK-35817",
  "history": [
    {
      "epoch": "2026-03-28T13:26:55.286304",
      "apogee_km": 476.15213965210296,
      "perigee_km": 474.40040721941205,
      "latitude_deg": -3.085184018934183,
      "longitude_deg": 149.49476255988702,
      "semi_major_axis_km": 6853.413273435757,
      "eccentricity": 0.0001278,
      "inclination_deg": 53.1596,
      "raan_deg": 144.8884,
      "arg_perigee_deg": 79.8011,
      "mean_anomaly_deg": 280.3134,
      "mean_motion_rev_day": 15.30179502
    }
  ]
}